{"type": "FeatureCollection", "features": [ {"type": "Feature", "properties": {"norad_id": 66998, "name": "2025-292F", "group": "last-30-days", "lat": 46.928220484201674, "lon": -109.57432689143512, "alt_km": 554.9423923373697, "timestamp": "2025-12-15T14:57:56.623698+00:00", "meta": {"OBJECT_NAME": "2025-292F", "OBJECT_ID": "2025-292F", "EPOCH": "2025-12-14T22:25:10.331904", "MEAN_MOTION": 15.04851178, "ECCENTRICITY": 0.00144855, "INCLINATION": 97.6571, "RA_OF_ASC_NODE": 61.4681, "ARG_OF_PERICENTER": 269.7946, "MEAN_ANOMALY": 90.162, "EPHEMERIS_TYPE": 0, "CLASSIFICATION_TYPE": "U", "NORAD_CAT_ID": 66998, "ELEMENT_SET_NO": 999, "REV_AT_EPOCH": 72, "BSTAR": 0.00032042492, "MEAN_MOTION_DOT": 4.477e-05, "MEAN_MOTION_DDOT": 0}, "tle": {"line1": "1 66998U 25292F   25348.93414736  .00004477  00000+0  32042-3 0  9992", "line2": "2 66998  97.6571  61.4681 0014485 269.7946  90.1620 15.04851178   723"}}, "geometry": {"type": "Point", "coordinates": [-109.57432689143512, 46.928220484201674]}}, {"type": "Feature", "properties": {"norad_id": 66999, "name": "2025-292G", "group": "last-30-days", "lat": 45.70750374402979, "lon": -109.92015272967537, "alt_km": 554.8072018455632, "timestamp": "2025-12-15T14:57:56.623708+00:00", "meta": {"OBJECT_NAME": "2025-292G", "OBJECT_ID": "2025-292G", "EPOCH": "2025-12-14T22:24:53.210016", "MEAN_MOTION": 15.04914817, "ECCENTRICITY": 0.00140122, "INCLINATION": 97.658, "RA_OF_ASC_NODE": 61.4688, "ARG_OF_PERICENTER": 271.9964, "MEAN_ANOMALY": 87.9658, "EPHEMERIS_TYPE": 0, "CLASSIFICATION_TYPE": "U", "NORAD_CAT_ID": 66999, "ELEMENT_SET_NO": 999, "REV_AT_EPOCH": 72, "BSTAR": 0.00031963651, "MEAN_MOTION_DOT": 4.472e-05, "MEAN_MOTION_DDOT": 0}, "tle": {"line1": "1 66999U 25292G   25348.93394919  .00004472  00000+0  31964-3 0  9990", "line2": "2 66999  97.6580  61.4688 0014012 271.9964  87.9658 15.04914817   727"}}, "geometry": {"type": "Point", "coordinates": [-109.92015272967537, 45.70750374402979]}}, {"type": "Feature", "properties": {"norad_id": 67000, "name": "2025-292H", "group": "last-30-days", "lat": 45.7316808700471, "lon": -109.91336025411907, "alt_km": 554.6987581730036, "timestamp": "2025-12-15T14:57:56.623717+00:00", "meta": {"OBJECT_NAME": "2025-292H", "OBJECT_ID": "2025-292H", "EPOCH": "2025-12-14T19:13:23.903904", "MEAN_MOTION": 15.04913459, "ECCENTRICITY": 0.00139506, "INCLINATION": 97.6593, "RA_OF_ASC_NODE": 61.3355, "ARG_OF_PERICENTER": 271.6746, "MEAN_ANOMALY": 88.2882, "EPHEMERIS_TYPE": 0, "CLASSIFICATION_TYPE": "U", "NORAD_CAT_ID": 67000, "ELEMENT_SET_NO": 999, "REV_AT_EPOCH": 57, "BSTAR": 0.00012246431, "MEAN_MOTION_DOT": 1.674e-05, "MEAN_MOTION_DDOT": 0}, "tle": {"line1": "1 67000U 25292H   25348.80097111  .00001674  00000+0  12246-3 0  9997", "line2": "2 67000  97.6593  61.3355 0013950 271.6746  88.2882 15.04913459   577"}}, "geometry": {"type": "Point", "coordinates": [-109.91336025411907, 45.7316808700471]}}, {"type": "Feature", "properties": {"norad_id": 67001, "name": "2025-292J", "group": "last-30-days", "lat": 56.914050591519334, "lon": -105.93623651716385, "alt_km": 555.2100347834839, "timestamp": "2025-12-15T14:57:56.623728+00:00", "meta": {"OBJECT_NAME": "2025-292J", "OBJECT_ID": "2025-292J", "EPOCH": "2025-12-14T22:27:32.891040", "MEAN_MOTION": 15.04329272, "ECCENTRICITY": 0.0014233, "INCLINATION": 97.657, "RA_OF_ASC_NODE": 61.4661, "ARG_OF_PERICENTER": 260.5877, "MEAN_ANOMALY": 99.374, "EPHEMERIS_TYPE": 0, "CLASSIFICATION_TYPE": "U", "NORAD_CAT_ID": 67001, "ELEMENT_SET_NO": 999, "REV_AT_EPOCH": 72, "BSTAR": 0.00030223241, "MEAN_MOTION_DOT": 4.159e-05, "MEAN_MOTION_DDOT": 0}, "tle": {"line1": "1 67001U 25292J   25348.93579735  .00004159  00000+0  30223-3 0  9995", "line2": "2 67001  97.6570  61.4661 0014233 260.5877  99.3740 15.04329272   728"}}, "geometry": {"type": "Point", "coordinates": [-105.93623651716385, 56.914050591519334]}}, {"type": "Feature", "properties": {"norad_id": 67002, "name": "ZK-1A R/B", "group": "last-30-days", "lat": 25.501446544477073, "lon": 58.92254824878334, "alt_km": 272.2891455866438, "timestamp": "2025-12-15T14:57:56.623737+00:00", "meta": {"OBJECT_NAME": "ZK-1A R/B", "OBJECT_ID": "2025-292K", "EPOCH": "2025-12-14T21:52:34.424256", "MEAN_MOTION": 15.55319822, "ECCENTRICITY": 0.02176359, "INCLINATION": 97.7241, "RA_OF_ASC_NODE": 61.865, "ARG_OF_PERICENTER": 358.0352, "MEAN_ANOMALY": 2.0022, "EPHEMERIS_TYPE": 0, "CLASSIFICATION_TYPE": "U", "NORAD_CAT_ID": 67002, "ELEMENT_SET_NO": 999, "REV_AT_EPOCH": 73, "BSTAR": 0.00064975416, "MEAN_MOTION_DOT": 0.00132664, "MEAN_MOTION_DDOT": 6.750053e-06}, "tle": {"line1": "1 67002U 25292K   25348.91150954  .00132664  67501-5  64975-3 0  9991", "line2": "2 67002  97.7241  61.8650 0217635 358.0352   2.0022 15.55319822   730"}}, "geometry": {"type": "Point", "coordinates": [58.92254824878334, 25.501446544477073]}}, {"type": "Feature", "properties": {"norad_id": 67059, "name": "HULIANWANG DIGUI 16A", "group": "last-30-days", "lat": -41.47267887747531, "lon": -132.03018784388837, "alt_km": 800.47126529448, "timestamp": "2025-12-15T14:57:56.623746+00:00", "meta": {"OBJECT_NAME": "HULIANWANG DIGUI 16A", "OBJECT_ID": "2025-295A", "EPOCH": "2025-12-12T05:06:27.347328", "MEAN_MOTION": 14.25879966, "ECCENTRICITY": 0.00136284, "INCLINATION": 50.0035, "RA_OF_ASC_NODE": 14.4753, "ARG_OF_PERICENTER": 247.7813, "MEAN_ANOMALY": 112.1656, "EPHEMERIS_TYPE": 0, "CLASSIFICATION_TYPE": "U", "NORAD_CAT_ID": 67059, "ELEMENT_SET_NO": 999, "REV_AT_EPOCH": 4, "BSTAR": 3.434713e-06, "MEAN_MOTION_DOT": -1.52e-06, "MEAN_MOTION_DDOT": 0}, "tle": {"line1": "1 67059U 25295A   25346.21281652 -.00000152  00000+0  34347-5 0  9991", "line2": "2 67059  50.0035  14.4753 0013628 247.7813 112.1656 14.25879966    41"}}, "geometry": {"type": "Point", "coordinates": [-132.03018784388837, -41.47267887747531]}}, {"type": "Feature", "properties": {"norad_id": 67060, "name": "HULIANWANG DIGUI 16B", "group": "last-30-days", "lat": -42.415717530042066, "lon": -129.8449897022725, "alt_km": 799.9233261046666, "timestamp": "2025-12-15T14:57:56.623755+00:00", "meta": {"OBJECT_NAME": "HULIANWANG DIGUI 16B", "OBJECT_ID": "2025-295B", "EPOCH": "2025-12-12T05:06:25.468992", "MEAN_MOTION": 14.26022254, "ECCENTRICITY": 0.0013423, "INCLINATION": 50.0012, "RA_OF_ASC_NODE": 14.4776, "ARG_OF_PERICENTER": 244.6732, "MEAN_ANOMALY": 115.2792, "EPHEMERIS_TYPE": 0, "CLASSIFICATION_TYPE": "U", "NORAD_CAT_ID": 67060, "ELEMENT_SET_NO": 999, "REV_AT_EPOCH": 4, "BSTAR": 4.398892e-06, "MEAN_MOTION_DOT": -1.5e-06, "MEAN_MOTION_DDOT": 0}, "tle": {"line1": "1 67060U 25295B   25346.21279478 -.00000150  00000+0  43989-5 0  9996", "line2": "2 67060  50.0012  14.4776 0013423 244.6732 115.2792 14.26022254    48"}}, "geometry": {"type": "Point", "coordinates": [-129.8449897022725, -42.415717530042066]}}, {"type": "Feature", "properties": {"norad_id": 67062, "name": "HULIANWANG DIGUI 16D", "group": "last-30-days", "lat": -41.79480985746251, "lon": -131.30947151305566, "alt_km": 801.285679527231, "timestamp": "2025-12-15T14:57:56.623764+00:00", "meta": {"OBJECT_NAME": "HULIANWANG DIGUI 16D", "OBJECT_ID": "2025-295D", "EPOCH": "2025-12-12T05:06:24.477120", "MEAN_MOTION": 14.25916921, "ECCENTRICITY": 0.00124974, "INCLINATION": 50.0052, "RA_OF_ASC_NODE": 14.4731, "ARG_OF_PERICENTER": 251.2247, "MEAN_ANOMALY": 108.7311, "EPHEMERIS_TYPE": 0, "CLASSIFICATION_TYPE": "U", "NORAD_CAT_ID": 67062, "ELEMENT_SET_NO": 999, "REV_AT_EPOCH": 4, "BSTAR": 3.753899e-06, "MEAN_MOTION_DOT": -1.51e-06, "MEAN_MOTION_DDOT": 0}, "tle": {"line1": "1 67062U 25295D   25346.21278330 -.00000151  00000+0  37539-5 0  9999", "line2": "2 67062  50.0052  14.4731 0012497 251.2247 108.7311 14.25916921    46"}}, "geometry": {"type": "Point", "coordinates": [-131.30947151305566, -41.79480985746251]}}, {"type": "Feature", "properties": {"norad_id": 67064, "name": "HULIANWANG DIGUI 16F", "group": "last-30-days", "lat": -47.21860134159205, "lon": -114.85222609059291, "alt_km": 795.6551377252308, "timestamp": "2025-12-15T14:57:56.623773+00:00", "meta": {"OBJECT_NAME": "HULIANWANG DIGUI 16F", "OBJECT_ID": "2025-295F", "EPOCH": "2025-12-12T05:06:22.414752", "MEAN_MOTION": 14.26957674, "ECCENTRICITY": 0.00149026, "INCLINATION": 50.0027, "RA_OF_ASC_NODE": 14.4596, "ARG_OF_PERICENTER": 247.8107, "MEAN_ANOMALY": 112.1227, "EPHEMERIS_TYPE": 0, "CLASSIFICATION_TYPE": "U", "NORAD_CAT_ID": 67064, "ELEMENT_SET_NO": 999, "REV_AT_EPOCH": 4, "BSTAR": 2.6251967e-05, "MEAN_MOTION_DOT": -9.6e-07, "MEAN_MOTION_DDOT": 0}, "tle": {"line1": "1 67064U 25295F   25346.21275943 -.00000096  00000+0  26252-4 0  9995", "line2": "2 67064  50.0027  14.4596 0014902 247.8107 112.1227 14.26957674    44"}}, "geometry": {"type": "Point", "coordinates": [-114.85222609059291, -47.21860134159205]}}, {"type": "Feature", "properties": {"norad_id": 67066, "name": "HULIANWANG DIGUI 16H", "group": "last-30-days", "lat": -44.8613695915459, "lon": -123.2963514666057, "alt_km": 799.9503748085972, "timestamp": "2025-12-15T14:57:56.623782+00:00", "meta": {"OBJECT_NAME": "HULIANWANG DIGUI 16H", "OBJECT_ID": "2025-295H", "EPOCH": "2025-12-12T05:06:20.088000", "MEAN_MOTION": 14.26429655, "ECCENTRICITY": 0.00114905, "INCLINATION": 50.0029, "RA_OF_ASC_NODE": 14.4606, "ARG_OF_PERICENTER": 248.6611, "MEAN_ANOMALY": 111.3077, "EPHEMERIS_TYPE": 0, "CLASSIFICATION_TYPE": "U", "NORAD_CAT_ID": 67066, "ELEMENT_SET_NO": 999, "REV_AT_EPOCH": 4, "BSTAR": 2.4353642e-05, "MEAN_MOTION_DOT": -1.01e-06, "MEAN_MOTION_DDOT": 0}, "tle": {"line1": "1 67066U 25295H   25346.21273250 -.00000101  00000+0  24354-4 0  9994", "line2": "2 67066  50.0029  14.4606 0011490 248.6611 111.3077 14.26429655    45"}}, "geometry": {"type": "Point", "coordinates": [-123.2963514666057, -44.8613695915459]}}]}